NORAD_CAT_ID,OBJECT_NAME,OBJECT_TYPE,EPOCH,MEAN_MOTION,ECCENTRICITY,INCLINATION,RA_OF_ASC_NODE,ARG_OF_PERICENTER,MEAN_ANOMALY,BSTAR,MEAN_MOTION_DOT,MEAN_MOTION_DDOT,TLE_LINE0,TLE_LINE1,TLE_LINE2,SEMIMAJOR_AXIS,PERIOD,APOGEE,PERIGEE,DECAYED
53636.0,STARLINK-4586,PAYLOAD,2023-04-14 13:21:28,15.08843091,6.69e-05,53.2184,303.0729,30.2574,329.8457,0.00011251,1.504e-05,0.0,0 STARLINK-4586,1 53636U 22104BA  23104.55657877  .00001504  00000-0  11251-3 0  9995,2 53636  53.2184 303.0729 0000669  30.2574 329.8457 15.08843091 35166,6917.871,95.437,540.199,539.273,0.0
53636.0,STARLINK-4586,PAYLOAD,2023-04-15 13:12:15,15.08837502,0.0001539,53.2167,298.6163,79.3392,280.7774,-1.1626e-05,-4.73e-06,0.0,0 STARLINK-4586,1 53636U 22104BA  23105.55018202 -.00000473  00000-0 -11626-4 0  9992,2 53636  53.2167 298.6163 0001539  79.3392 280.7774 15.08837502 36334,6917.888,95.438,540.818,538.688,0.0
53636.0,STARLINK-4586,PAYLOAD,2023-04-15 19:33:48,15.0884587,0.0001092,53.216,297.4232,68.5973,291.5135,-4.3604e-05,-9.82e-06,0.0,0 STARLINK-4586,1 53636U 22104BA  23105.81513952 -.00000982  00000-0 -43604-4 0  9999,2 53636  53.2160 297.4232 0001092  68.5973 291.5135 15.08845870 36372,6917.862,95.437,540.483,538.972,0.0
53636.0,STARLINK-4586,PAYLOAD,2023-04-16 13:03:02,15.08837611,0.000123,53.2143,294.1506,71.488,288.6245,3.1424e-05,2.12e-06,0.0,0 STARLINK-4586,1 53636U 22104BA  23106.54378346  .00000212  00000-0  31424-4 0  9997,2 53636  53.2143 294.1506 0001230  71.4880 288.6245 15.08837611 35467,6917.888,95.438,540.604,538.902,0.0
53636.0,STARLINK-4586,PAYLOAD,2023-04-16 19:24:34,15.08849733,0.0001248,53.2171,292.9628,82.5963,277.5171,0.00012843,1.757e-05,0.0,0 STARLINK-4586,1 53636U 22104BA  23106.80873426  .00001757  00000-0  12843-3 0  9993,2 53636  53.2171 292.9628 0001248  82.5963 277.5171 15.08849733 35501,6917.851,95.437,540.579,538.852,0.0
53636.0,STARLINK-4586,PAYLOAD,2023-04-16 20:59:57,15.0884902,0.0001227,53.2155,292.6653,78.9175,281.1955,0.00018848,2.714e-05,0.0,0 STARLINK-4586,1 53636U 22104BA  23106.87497651  .00002714  00000-0  18848-3 0  9997,2 53636  53.2155 292.6653 0001227  78.9175 281.1955 15.08849020 36533,6917.853,95.437,540.567,538.869,0.0
53636.0,STARLINK-4586,PAYLOAD,2023-04-17 04:56:54,15.08826512,5.52e-05,53.2164,291.1808,201.1715,158.9255,-9.8414e-05,-1.853e-05,0.0,0 STARLINK-4586,1 53636U 22104BA  23107.20618256 -.00001853  00000-0 -98414-4 0  9994,2 53636  53.2164 291.1808 0000552 201.1715 158.9255 15.08826512 35566,6917.922,95.438,540.168,539.405,0.0
53636.0,STARLINK-4586,PAYLOAD,2023-04-17 12:53:50,15.08828786,9.53e-05,53.2144,289.6894,62.2339,297.875,-6.8079e-05,-1.371e-05,0.0,0 STARLINK-4586,1 53636U 22104BA  23107.53738853 -.00001371  00000-0 -68079-4 0  9995,2 53636  53.2144 289.6894 0000953  62.2339 297.8750 15.08828786 36631,6917.915,95.438,540.439,539.12,0.0
53636.0,STARLINK-4586,PAYLOAD,2023-04-17 19:15:22,15.08842209,0.0001292,53.2166,288.5041,91.2981,268.8159,0.00012527,1.706e-05,0.0,0 STARLINK-4586,1 53636U 22104BA  23107.80234259  .00001706  00000-0  12527-3 0  9992,2 53636  53.2166 288.5041 0001292  91.2981 268.8159 15.08842209 35657,6917.874,95.437,540.632,538.845,0.0
53636.0,STARLINK-4586,PAYLOAD,2023-04-18 11:09:14,15.08833314,7.76e-05,53.2146,285.5274,94.2479,265.8602,-1.8618e-05,-5.84e-06,0.0,0 STARLINK-4586,1 53636U 22104BA  23108.46474543 -.00000584  00000-0 -18618-4 0  9990,2 53636  53.2146 285.5274 0000776  94.2479 265.8602 15.08833314 36772,6917.901,95.438,540.303,539.229,0.0
53636.0,STARLINK-4586,PAYLOAD,2023-04-18 14:20:00,15.08834871,6.47e-05,53.2149,284.9326,95.8262,264.2804,0.0001439,2.003e-05,0.0,0 STARLINK-4586,1 53636U 22104BA  23108.59722486  .00002003  00000-0  14390-3 0  9994,2 53636  53.2149 284.9326 0000647  95.8262 264.2804 15.08834871 35775,6917.896,95.438,540.209,539.313,0.0
53636.0,STARLINK-4586,PAYLOAD,2023-04-18 20:41:32,15.0885579,0.0001044,53.2146,283.743,94.7589,265.3522,0.0010002,0.00015673,0.0,0 STARLINK-4586,1 53636U 22104BA  23108.86218297  .00015673  00000-0  10002-2 0  9996,2 53636  53.2146 283.7430 0001044  94.7589 265.3522 15.08855790 36837,6917.832,95.437,540.419,538.975,0.0
53636.0,STARLINK-4586,PAYLOAD,2023-04-19 17:21:33,15.0885095,0.0001323,53.2156,279.8779,103.9371,256.1769,0.00056928,8.786e-05,0.0,0 STARLINK-4586,1 53636U 22104BA  23109.72330330  .00008786  00000-0  56928-3 0  9990,2 53636  53.2156 279.8779 0001323 103.9371 256.1769 15.08850950 36960,6917.847,95.437,540.627,538.797,0.0
53636.0,STARLINK-4586,PAYLOAD,2023-04-20 10:50:48,15.08838085,0.0001552,53.2152,276.6058,85.748,274.369,0.00014898,2.084e-05,0.0,0 STARLINK-4586,1 53636U 22104BA  23110.45194760  .00002084  00000-0  14898-3 0  9992,2 53636  53.2152 276.6058 0001552  85.7480 274.3690 15.08838085 37076,6917.886,95.438,540.825,538.678,0.0
53636.0,STARLINK-4586,PAYLOAD,2023-04-20 17:12:20,15.08839217,0.0001763,53.2161,275.4181,82.1251,277.9941,0.00050852,7.814e-05,0.0,0 STARLINK-4586,1 53636U 22104BA  23110.71690927  .00007814  00000-0  50852-3 0  9993,2 53636  53.2161 275.4181 0001763  82.1251 277.9941 15.08839217 36098,6917.883,95.438,540.967,538.528,0.0
53636.0,STARLINK-4586,PAYLOAD,2023-04-21 04:20:03,15.08835547,0.0001207,53.2157,273.3347,79.6483,280.4645,0.00042296,6.449e-05,0.0,0 STARLINK-4586,1 53636U 22104BA  23111.18059082  .00006449  00000-0  42296-3 0  9992,2 53636  53.2157 273.3347 0001207  79.6483 280.4645 15.08835547 36165,6917.894,95.438,540.594,538.924,0.0
53636.0,STARLINK-4586,PAYLOAD,2023-04-21 17:03:08,15.0884312,0.0001189,53.2158,270.9572,66.5969,293.5148,0.00041618,6.342e-05,0.0,0 STARLINK-4586,1 53636U 22104BA  23111.71050992  .00006342  00000-0  41618-3 0  9991,2 53636  53.2158 270.9572 0001189  66.5969 293.5148 15.08843120 37263,6917.871,95.437,540.558,538.913,0.0
53636.0,STARLINK-4586,PAYLOAD,2023-04-22 04:10:49,15.08844064,0.0001062,53.2151,268.8766,67.5507,292.5598,0.00027503,4.092e-05,0.0,0 STARLINK-4586,1 53636U 22104BA  23112.17418847  .00004092  00000-0  27503-3 0  9996,2 53636  53.2151 268.8766 0001062  67.5507 292.5598 15.08844064 37330,6917.868,95.437,540.468,538.998,0.0
53636.0,STARLINK-4586,PAYLOAD,2023-04-22 21:40:03,15.08858033,0.0001416,53.2142,265.6034,79.7381,280.3771,0.00042137,6.428e-05,0.0,0 STARLINK-4586,1 53636U 22104BA  23112.90282207  .00006428  00000-0  42137-3 0  9991,2 53636  53.2142 265.6034 0001416  79.7381 280.3771 15.08858033 36429,6917.825,95.436,540.67,538.711,0.0
53636.0,STARLINK-4586,PAYLOAD,2023-04-23 21:30:50,15.08843909,0.0002682,53.2163,261.1413,212.966,147.1165,3.6489e-05,2.92e-06,0.0,0 STARLINK-4586,1 53636U 22104BA  23113.89641286  .00000292  00000-0  36489-4 0  9993,2 53636  53.2163 261.1413 0002682 212.9660 147.1165 15.08843909 37593,6917.868,95.437,541.589,537.878,0.0
53636.0,STARLINK-4586,PAYLOAD,2023-04-24 02:17:00,15.08842616,7.64e-05,53.2155,260.2527,197.4643,162.6322,0.00021224,3.092e-05,0.0,0 STARLINK-4586,1 53636U 22104BA  23114.09514489  .00003092  00000-0  21224-3 0  9991,2 53636  53.2155 260.2527 0000764 197.4643 162.6322 15.08842616 36609,6917.872,95.437,540.266,539.209,0.0
53636.0,STARLINK-4586,PAYLOAD,2023-04-24 10:13:55,15.08895217,5.72e-05,53.2159,258.7633,111.1492,248.9561,0.0032773,0.00052337,0.0,0 STARLINK-4586,1 53636U 22104BA  23114.42634014  .00052337  00000-0  32773-2 0  9991,2 53636  53.2159 258.7633 0000572 111.1492 248.9561 15.08895217 37671,6917.712,95.434,539.972,539.181,0.0
53636.0,STARLINK-4586,PAYLOAD,2023-04-25 02:07:47,15.08835376,0.0004566,53.2161,255.7864,77.49,282.6603,-0.0014167,-0.00022768,0.0,0 STARLINK-4586,1 53636U 22104BA  23115.08873867 -.00022768  00000-0 -14167-2 0  9999,2 53636  53.2161 255.7864 0004566  77.4900 282.6603 15.08835376 36752,6917.895,95.438,542.918,536.601,0.0
53636.0,STARLINK-4586,PAYLOAD,2023-04-26 11:30:55,15.08820251,8.81e-05,53.2156,249.5463,42.4074,317.6986,0.0012117,0.00019038,0.0,0 STARLINK-4586,1 53636U 22104BA  23116.47980730  .00019038  00000-0  12117-2 0  9998,2 53636  53.2156 249.5463 0000881  42.4074 317.6986 15.08820251 36964,6917.941,95.439,540.415,539.196,0.0
53636.0,STARLINK-4586,PAYLOAD,2023-04-26 17:52:28,15.08832491,9.54e-05,53.2154,248.357,42.0608,318.0457,0.0013728,0.00021623,0.0,0 STARLINK-4586,1 53636U 22104BA  23116.74476952  .00021623  00000-0  13728-2 0  9996,2 53636  53.2154 248.3570 0000954  42.0608 318.0457 15.08832491 38024,6917.903,95.438,540.428,539.108,0.0
53636.0,STARLINK-4586,PAYLOAD,2023-04-27 01:49:23,15.08848105,9.99e-05,53.215,246.8707,39.0405,321.0659,0.0013879,0.00021874,0.0,0 STARLINK-4586,1 53636U 22104BA  23117.07596882  .00021874  00000-0  13879-2 0  9993,2 53636  53.2150 246.8707 0000999  39.0405 321.0659 15.08848105 38077,6917.856,95.437,540.412,539.03,0.0
53636.0,STARLINK-4586,PAYLOAD,2023-04-28 01:40:09,15.08880292,0.0001137,53.2153,242.4101,37.5018,322.6053,0.0013551,0.00021368,0.0,0 STARLINK-4586,1 53636U 22104BA  23118.06955459  .00021368  00000-0  13551-2 0  9997,2 53636  53.2153 242.4101 0001137  37.5018 322.6053 15.08880292 37200,6917.757,95.435,540.409,538.836,0.0
53636.0,STARLINK-4586,PAYLOAD,2023-04-28 14:23:14,15.08850679,0.0001068,53.2148,240.0316,46.7545,313.3536,0.0014073,0.00022187,0.0,0 STARLINK-4586,1 53636U 22104BA  23118.59947359  .00022187  00000-0  14073-2 0  9995,2 53636  53.2148 240.0316 0001068  46.7545 313.3536 15.08850679 37283,6917.848,95.437,540.452,538.974,0.0
53636.0,STARLINK-4586,PAYLOAD,2023-04-29 01:30:56,15.08849355,0.0001419,53.2133,237.9511,40.5604,319.5493,0.0003223,4.846e-05,0.0,0 STARLINK-4586,1 53636U 22104BA  23119.06315284  .00004846  00000-0  32230-3 0  9992,2 53636  53.2133 237.9511 0001419  40.5604 319.5493 15.08849355 37354,6917.852,95.437,540.698,538.735,0.0
53636.0,STARLINK-4586,PAYLOAD,2023-04-29 12:38:38,15.08841848,0.0001165,53.2155,235.8682,60.8743,299.2366,0.00033293,5.015e-05,0.0,0 STARLINK-4586,1 53636U 22104BA  23119.52683527  .00005015  00000-0  33293-3 0  9990,2 53636  53.2155 235.8682 0001165  60.8743 299.2366 15.08841848 37421,6917.875,95.437,540.546,538.934,0.0
